XRISM                   
1 57800U 23137A   24048.14924598  .00006501  00000+0  50864-3 0  9993
2 57800  31.0043  62.1119 0009804  91.6683 268.5075 14.99635058 24499
